[{"OBJECT_NAME":"RISAT-2BR2","OBJECT_ID":"2020-081A","EPOCH":"2026-03-09T12:34:56.452800","MEAN_MOTION":15.01602463,"ECCENTRICITY":0.00109054,"INCLINATION":36.898,"RA_OF_ASC_NODE":95.9121,"ARG_OF_PERICENTER":52.9142,"MEAN_ANOMALY":307.2595,"EPHEMERIS_TYPE":0,"CLASSIFICATION_TYPE":"U","NORAD_CAT_ID":46905,"ELEMENT_SET_NO":999,"REV_AT_EPOCH":29248,"BSTAR":0.00037609291,"MEAN_MOTION_DOT":4.901e-5,"MEAN_MOTION_DDOT":0},{"OBJECT_NAME":"STARLINK-34945","OBJECT_ID":"2025-175M","EPOCH":"2026-03-09T15:31:15.623040","MEAN_MOTION":15.05654082,"ECCENTRICITY":0.0002954,"INCLINATION":97.6009,"RA_OF_ASC_NODE":302.6097,"ARG_OF_PERICENTER":93.254,"MEAN_ANOMALY":266.9025,"EPHEMERIS_TYPE":0,"CLASSIFICATION_TYPE":"U","NORAD_CAT_ID":65185,"ELEMENT_SET_NO":999,"REV_AT_EPOCH":3263,"BSTAR":0.00050854,"MEAN_MOTION_DOT":7.286e-5,"MEAN_MOTION_DDOT":0}]
