RISAT-2BR2              
1 46905U 20081A   26068.52426450  .00004901  00000+0  37609-3 0  9996
2 46905  36.8980  95.9121 0010905  52.9142 307.2595 15.01602463292489
STARLINK-34945          
1 65185U 25175M   26068.64670860  .00007286  00000+0  50854-3 0  9991
2 65185  97.6009 302.6097 0002954  93.2540 266.9025 15.05654082 32638
